STARLINK-31078          
1 58638U 23203W   26068.06535435 -.00001010  00000+0 -27170-4 0  9997
2 58638  43.0038  70.8133 0001097 233.2401 126.8350 15.27582184123468
OTTER                   
1 62623U 25009Q   26068.72300813  .00012198  00000+0  45151-3 0  9990
2 62623  97.4065 151.3812 0003573 310.7710  49.3219 15.27809545 63722
